[{"OBJECT_NAME":"BEIDOU-3 M25 (C47)","OBJECT_ID":"2024-168B","EPOCH":"2026-03-02T21:02:05.148672","MEAN_MOTION":1.86230044,"ECCENTRICITY":0.0004284,"INCLINATION":54.5671,"RA_OF_ASC_NODE":305.9377,"ARG_OF_PERICENTER":318.218,"MEAN_ANOMALY":224.0101,"EPHEMERIS_TYPE":0,"CLASSIFICATION_TYPE":"U","NORAD_CAT_ID":61186,"ELEMENT_SET_NO":999,"REV_AT_EPOCH":980,"BSTAR":0,"MEAN_MOTION_DOT":-5.5e-7,"MEAN_MOTION_DDOT":0},{"OBJECT_NAME":"BEIDOU-3 M27 (C49)","OBJECT_ID":"2024-168C","EPOCH":"2026-03-02T16:14:48.747840","MEAN_MOTION":1.86230177,"ECCENTRICITY":0.00029509,"INCLINATION":54.5628,"RA_OF_ASC_NODE":305.9279,"ARG_OF_PERICENTER":19.4772,"MEAN_ANOMALY":163.9881,"EPHEMERIS_TYPE":0,"CLASSIFICATION_TYPE":"U","NORAD_CAT_ID":61187,"ELEMENT_SET_NO":999,"REV_AT_EPOCH":727,"BSTAR":0,"MEAN_MOTION_DOT":-5.4e-7,"MEAN_MOTION_DDOT":0}]
